NORAD_CAT_ID,OBJECT_NAME,OBJECT_TYPE,EPOCH,MEAN_MOTION,ECCENTRICITY,INCLINATION,RA_OF_ASC_NODE,ARG_OF_PERICENTER,MEAN_ANOMALY,BSTAR,MEAN_MOTION_DOT,MEAN_MOTION_DDOT,TLE_LINE0,TLE_LINE1,TLE_LINE2,SEMIMAJOR_AXIS,PERIOD,APOGEE,PERIGEE,DECAYED
53282.0,STARLINK-4164,PAYLOAD,2022-11-19 01:14:48,15.08838904,0.0001954,53.218,200.9294,48.3527,311.7632,2.9783000000000013e-05,1.86e-06,0.0,0 STARLINK-4164,1 53282U 22086AS  22323.05195175  .00000186  00000-0  29783-4 0  9991,2 53282  53.2180 200.9294 0001954  48.3527 311.7632 15.08838904 18867,6917.884,95.438,541.1,538.3969999999998,0.0
53282.0,STARLINK-4164,PAYLOAD,2022-11-19 18:44:03,15.08838355,0.0001776,53.2177,197.6592,52.7753,307.3401,-7.0097e-05,-1.403e-05,0.0,0 STARLINK-4164,1 53282U 22086AS  22323.78059658 -.00001403  00000-0 -70097-4 0  9995,2 53282  53.2177 197.6592 0001776  52.7753 307.3401 15.08838355 19145,6917.885,95.438,540.979,538.5219999999998,0.0
53282.0,STARLINK-4164,PAYLOAD,2022-11-20 01:05:35,15.0884321,0.0001897,53.2172,196.4687,46.7341,313.3809,-2.3653e-05,-6.65e-06,0.0,0 STARLINK-4164,1 53282U 22086AS  22324.04555193 -.00000665  00000-0 -23653-4 0  9995,2 53282  53.2172 196.4687 0001897  46.7341 313.3809 15.08843210 19181,6917.871,95.437,541.048,538.423,0.0
53282.0,STARLINK-4164,PAYLOAD,2022-11-20 21:45:36,15.08836205,0.0001968,53.2171,192.6031,46.0126,314.1028,-5.8609e-06,-3.81e-06,0.0,0 STARLINK-4164,1 53282U 22086AS  22324.90667518 -.00000381  00000-0 -58609-5 0  9990,2 53282  53.2171 192.6031 0001968  46.0126 314.1028 15.08836205 19317,6917.892,95.438,541.118,538.396,0.0
53282.0,STARLINK-4164,PAYLOAD,2022-11-21 02:31:46,15.08837615,0.0002014,53.217,191.7113,45.4181,314.6976,6.605599999999997e-06,-1.83e-06,0.0,0 STARLINK-4164,1 53282U 22086AS  22325.10539463 -.00000183  00000-0  66056-5 0  9994,2 53282  53.2170 191.7113 0002014  45.4181 314.6976 15.08837615 19171,6917.888000000001,95.438,541.146,538.359,0.0
53282.0,STARLINK-4164,PAYLOAD,2022-11-21 08:53:18,15.08836625,0.000202,53.2171,190.5218,45.9383,314.1775,2.0865e-05,4.4e-07,0.0,0 STARLINK-4164,1 53282U 22086AS  22325.37035517  .00000044  00000-0  20865-4 0  9996,2 53282  53.2171 190.5218 0002020  45.9383 314.1775 15.08836625 19386,6917.891,95.438,541.153,538.3580000000002,0.0
53282.0,STARLINK-4164,PAYLOAD,2022-11-21 20:01:00,15.08840653,0.0001834,53.2171,188.4397,46.2057,313.9087,2.771e-05,1.53e-06,0.0,0 STARLINK-4164,1 53282U 22086AS  22325.83403205  .00000153  00000-0  27710-4 0  9997,2 53282  53.2171 188.4397 0001834  46.2057 313.9087 15.08840653 19451,6917.878000000002,95.438,541.012,538.475,0.0
53282.0,STARLINK-4164,PAYLOAD,2022-11-22 00:47:10,15.08834499,0.0002008,53.2173,187.5485,40.5334,319.5807,-2.2477e-05,-6.46e-06,0.0,0 STARLINK-4164,1 53282U 22086AS  22326.03275816 -.00000646  00000-0 -22477-4 0  9999,2 53282  53.2173 187.5485 0002008  40.5334 319.5807 15.08834499 19486,6917.897,95.438,541.151,538.373,0.0
53282.0,STARLINK-4164,PAYLOAD,2022-11-22 19:51:48,15.08831075,0.0002145,53.2174,183.9806,43.359,316.7571,2.9054e-05,1.74e-06,0.0,0 STARLINK-4164,1 53282U 22086AS  22326.82764081  .00000174  00000-0  29054-4 0  9995,2 53282  53.2174 183.9806 0002145  43.3590 316.7571 15.08831075 19609,6917.908,95.438,541.257,538.289,0.0
53282.0,STARLINK-4164,PAYLOAD,2022-11-23 00:37:57,15.08835229,0.0002061,53.2172,183.0877,46.9939,313.1226,4.8882e-05,4.9000000000000005e-06,0.0,0 STARLINK-4164,1 53282U 22086AS  22327.02635798  .00000490  00000-0  48882-4 0  9991,2 53282  53.2172 183.0877 0002061  46.9939 313.1226 15.08835229 19466,6917.895,95.438,541.186,538.3340000000002,0.0
53282.0,STARLINK-4164,PAYLOAD,2022-11-23 21:17:58,15.08827067,0.0001999,53.2175,179.2222,50.5164,309.6005,-4.6424e-06,-3.62e-06,0.0,0 STARLINK-4164,1 53282U 22086AS  22327.88748528 -.00000362  00000-0 -46424-5 0  9992,2 53282  53.2175 179.2222 0001999  50.5164 309.6005 15.08827067 19590,6917.92,95.438,541.168,538.4019999999998,0.0
53282.0,STARLINK-4164,PAYLOAD,2022-11-24 06:50:17,15.08826242,0.0002049,53.2174,177.4376,49.3154,310.8016,3.6874e-06,-2.3e-06,0.0,0 STARLINK-4164,1 53282U 22086AS  22328.28492900 -.00000230  00000-0  36874-5 0  9998,2 53282  53.2174 177.4376 0002049  49.3154 310.8016 15.08826242 19827,6917.922,95.438,541.205,538.37,0.0
53282.0,STARLINK-4164,PAYLOAD,2022-11-24 21:08:46,15.08831424,0.0002006,53.2172,174.7612,50.3014,309.8155,-2.192e-05,-6.37e-06,0.0,0 STARLINK-4164,1 53282U 22086AS  22328.88109028 -.00000637  00000-0 -21920-4 0  9997,2 53282  53.2172 174.7612 0002006  50.3014 309.8155 15.08831424 19918,6917.906999999997,95.438,541.159,538.384,0.0
53282.0,STARLINK-4164,PAYLOAD,2022-11-25 06:41:04,15.08833879,0.0001987,53.217,172.9772,51.1891,308.9278,9.2737e-07,-2.73e-06,0.0,0 STARLINK-4164,1 53282U 22086AS  22329.27852954 -.00000273  00000-0  92737-6 0  9995,2 53282  53.2170 172.9772 0001987  51.1891 308.9278 15.08833879 19802,6917.899,95.438,541.139,538.39,0.0
53282.0,STARLINK-4164,PAYLOAD,2022-11-25 13:02:37,15.088354,0.0002169,53.2175,171.7875,50.4305,309.6878,-9.304e-06,-4.36e-06,0.0,0 STARLINK-4164,1 53282U 22086AS  22329.54349066 -.00000436  00000-0 -93040-5 0  9999,2 53282  53.2175 171.7875 0002169  50.4305 309.6878 15.08835400 20014,6917.894,95.438,541.26,538.259,0.0
53282.0,STARLINK-4164,PAYLOAD,2022-11-25 19:24:09,15.08852027,0.0002178,53.2172,170.5982,50.2113,309.9071,-0.00016343,-2.889e-05,0.0,0 STARLINK-4164,1 53282U 22086AS  22329.80844651 -.00002889  00000-0 -16343-3 0  9991,2 53282  53.2172 170.5982 0002178  50.2113 309.9071 15.08852027 20058,6917.844,95.437,541.215,538.202,0.0
53282.0,STARLINK-4164,PAYLOAD,2022-11-26 12:53:24,15.08837156,0.000208,53.217,167.3269,52.5945,307.5236,0.00010617,1.402e-05,0.0,0 STARLINK-4164,1 53282U 22086AS  22330.53708839  .00001402  00000-0  10617-3 0  9996,2 53282  53.2170 167.3269 0002080  52.5945 307.5236 15.08837156 20163,6917.889,95.438,541.193,538.315,0.0
53282.0,STARLINK-4164,PAYLOAD,2022-11-26 17:39:33,15.08839754,0.0002099,53.2173,166.4352,53.1995,306.9190000000001,0.00010886,1.445e-05,0.0,0 STARLINK-4164,1 53282U 22086AS  22330.73580685  .00001445  00000-0  10886-3 0  9990,2 53282  53.2173 166.4352 0002099  53.1995 306.9190 15.08839754 20024,6917.880999999999,95.438,541.198,538.294,0.0
53282.0,STARLINK-4164,PAYLOAD,2022-11-27 12:44:10,15.08846407,0.0002146,53.2171,162.8668,54.515,305.6042,9.6749e-05,1.252e-05,0.0,0 STARLINK-4164,1 53282U 22086AS  22331.53068110  .00001252  00000-0  96749-4 0  9992,2 53282  53.2171 162.8668 0002146  54.5150 305.6042 15.08846407 20310,6917.861,95.437,541.21,538.241,0.0
53282.0,STARLINK-4164,PAYLOAD,2022-11-27 19:05:43,15.08843456,0.0002192,53.2176,161.6777,55.7675,304.3525,6.1726e-05,6.94e-06,0.0,0 STARLINK-4164,1 53282U 22086AS  22331.79564367  .00000694  00000-0  61726-4 0  9991,2 53282  53.2176 161.6777 0002192  55.7675 304.3525 15.08843456 20187,6917.87,95.437,541.251,538.2180000000002,0.0
53282.0,STARLINK-4164,PAYLOAD,2022-11-27 22:16:30,15.08838197,0.0002004,53.2165,161.0822,53.0953,307.0222,-8.8322e-07,-3.02e-06,0.0,0 STARLINK-4164,1 53282U 22086AS  22331.92812856 -.00000302  00000-0 -88322-6 0  9996,2 53282  53.2165 161.0822 0002004  53.0953 307.0222 15.08838197 20205,6917.886,95.438,541.137,538.365,0.0
53282.0,STARLINK-4164,PAYLOAD,2022-11-28 12:34:58,15.08838367,0.0002083,53.2171,158.4064,53.4167,306.7017,-1.6335999999999994e-05,-5.48e-06,0.0,0 STARLINK-4164,1 53282U 22086AS  22332.52428921 -.00000548  00000-0 -16336-4 0  9995,2 53282  53.2171 158.4064 0002083  53.4167 306.7017 15.08838367 20463,6917.885,95.438,541.191,538.309,0.0
53282.0,STARLINK-4164,PAYLOAD,2022-11-29 12:25:45,15.08842436,0.0002139,53.2169,153.9461,52.6106,307.5081,-5.6970000000000015e-06,-3.79e-06,0.0,0 STARLINK-4164,1 53282U 22086AS  22333.51788476 -.00000379  00000-0 -56970-5 0  9990,2 53282  53.2169 153.9461 0002139  52.6106 307.5081 15.08842436 20616,6917.873000000001,95.437,541.2180000000002,538.258,0.0
53282.0,STARLINK-4164,PAYLOAD,2022-11-29 18:47:17,15.08843992,0.000212,53.2165,152.7563,53.4863,306.6324,1.4127e-05,-6.3e-07,0.0,0 STARLINK-4164,1 53282U 22086AS  22333.78284240 -.00000063  00000-0  14127-4 0  9995,2 53282  53.2165 152.7563 0002120  53.4863 306.6324 15.08843992 20484,6917.868,95.437,541.2,538.2669999999998,0.0
53282.0,STARLINK-4164,PAYLOAD,2022-11-30 12:16:31,15.08843536,0.000219,53.2168,149.4853,55.9139,304.2061,7.4767e-05,9.02e-06,0.0,0 STARLINK-4164,1 53282U 22086AS  22334.51148036  .00000902  00000-0  74767-4 0  9996,2 53282  53.2168 149.4853 0002190  55.9139 304.2061 15.08843536 20769,6917.87,95.437,541.25,538.22,0.0
53282.0,STARLINK-4164,PAYLOAD,2022-11-30 18:38:04,15.08844096,0.0002202,53.2168,148.2959,56.2765,303.8436,7.4342e-05,8.95e-06,0.0,0 STARLINK-4164,1 53282U 22086AS  22334.77643937  .00000895  00000-0  74342-4 0  9994,2 53282  53.2168 148.2959 0002202  56.2765 303.8436 15.08844096 20804,6917.868,95.437,541.256,538.21,0.0
53282.0,STARLINK-4164,PAYLOAD,2022-12-01 04:10:24,15.08832536,0.0002218,53.2167,146.5121,55.2596,304.8605,-2.9219e-05,-7.53e-06,0.0,0 STARLINK-4164,1 53282U 22086AS  22335.17389076 -.00000753  00000-0 -29219-4 0  9998,2 53282  53.2167 146.5121 0002218  55.2596 304.8605 15.08832536 20695,6917.903,95.438,541.303,538.234,0.0
53282.0,STARLINK-4164,PAYLOAD,2022-12-01 10:31:56,15.08837408,0.0002348,53.2181,145.3216,56.1592,303.9623,-3.8794e-05,-9.06e-06,0.0,0 STARLINK-4164,1 53282U 22086AS  22335.43884944 -.00000906  00000-0 -38794-4 0  9999,2 53282  53.2181 145.3216 0002348  56.1592 303.9623 15.08837408 20900,6917.888000000001,95.438,541.378,538.129,0.0
53282.0,STARLINK-4164,PAYLOAD,2022-12-01 18:28:52,15.08837371,0.0002195,53.2169,143.8354,56.0592,304.0609,-2.1689e-05,-6.33e-06,0.0,0 STARLINK-4164,1 53282U 22086AS  22335.77004876 -.00000633  00000-0 -21689-4 0  9996,2 53282  53.2169 143.8354 0002195  56.0592 304.0609 15.08837371 20951,6917.888000000001,95.438,541.2719999999998,538.235,0.0
